NORAD_CAT_ID,OBJECT_NAME,OBJECT_TYPE,EPOCH,MEAN_MOTION,ECCENTRICITY,INCLINATION,RA_OF_ASC_NODE,ARG_OF_PERICENTER,MEAN_ANOMALY,BSTAR,MEAN_MOTION_DOT,MEAN_MOTION_DDOT,TLE_LINE0,TLE_LINE1,TLE_LINE2,SEMIMAJOR_AXIS,PERIOD,APOGEE,PERIGEE,DECAYED
55958.0,STARLINK-5928,PAYLOAD,2023-04-16 09:55:00,15.69926656,0.0003384,70.0008,97.7059,279.7229,80.3585,1.5678e-05,1.673e-05,0.0,0 STARLINK-5928,1 55958U 23037AW  23106.41320066  .00001673  00000-0  15678-4 0  9999,2 55958  70.0008  97.7059 0003384 279.7229  80.3585 15.69926656  4842,6737.244,91.724,361.389,356.829,0.0
55958.0,STARLINK-5928,PAYLOAD,2023-04-17 05:47:46,15.69936706,0.0003294,70.001,95.3773,271.8163,88.2655,3.0533e-05,3.462e-05,0.0,0 STARLINK-5928,1 55958U 23037AW  23107.24151260  .00003462  00000-0  30533-4 0  9994,2 55958  70.0010  95.3773 0003294 271.8163  88.2655 15.69936706  5317,6737.215,91.723,361.299,356.861,0.0
55958.0,STARLINK-5928,PAYLOAD,2023-04-17 08:51:17,15.69912205,0.0002676,70.0022,95.0191,271.5714,88.5175,-2.2921e-05,-2.966e-05,0.0,0 STARLINK-5928,1 55958U 23037AW  23107.36895588 -.00002966  00000-0 -22921-4 0  9997,2 55958  70.0022  95.0191 0002676 271.5714  88.5175 15.69912205  5333,6737.285,91.725,360.953,357.347,0.0
55958.0,STARLINK-5928,PAYLOAD,2023-04-17 16:30:03,15.6992186,0.0002946,70.0012,94.1227,275.1607,84.9253,8.1676e-06,7.7e-06,0.0,0 STARLINK-5928,1 55958U 23037AW  23107.68753709  .00000770  00000-0  81676-5 0  9992,2 55958  70.0012  94.1227 0002946 275.1607  84.9253 15.69921860  5045,6737.258,91.724,361.107,357.138,0.0
55958.0,STARLINK-5928,PAYLOAD,2023-04-18 09:19:19,15.69921812,0.0003028,70.001,92.1533,259.5718,100.5137,6.0486e-06,5.15e-06,0.0,0 STARLINK-5928,1 55958U 23037AW  23108.38841984  .00000515  00000-0  60486-5 0  9996,2 55958  70.0010  92.1533 0003028 259.5718 100.5137 15.69921812  5157,6737.258,91.724,361.163,357.083,0.0
55958.0,STARLINK-5928,PAYLOAD,2023-04-19 08:15:36,15.69935382,0.0003474,70.0006,89.4656,262.3018,97.7784,7.1936e-05,8.45e-05,0.0,0 STARLINK-5928,1 55958U 23037AW  23109.34416679  .00008450  00000-0  71936-4 0  9999,2 55958  70.0006  89.4656 0003474 262.3018  97.7784 15.69935382  5643,6737.219,91.724,361.424,356.743,0.0
55958.0,STARLINK-5928,PAYLOAD,2023-04-20 01:04:52,15.69934996,0.0002871,70.0018,87.4934,262.6781,97.4088,6.109e-05,7.142e-05,0.0,0 STARLINK-5928,1 55958U 23037AW  23110.04505168  .00007142  00000-0  61090-4 0  9997,2 55958  70.0018  87.4934 0002871 262.6781  97.4088 15.69934996  5759,6737.22,91.724,361.019,357.151,0.0
55958.0,STARLINK-5928,PAYLOAD,2023-04-20 07:11:52,15.69936586,0.0002882,70.0021,86.7763,262.9622,97.1246,9.2102e-05,0.00010881,0.0,0 STARLINK-5928,1 55958U 23037AW  23110.29991839  .00010881  00000-0  92102-4 0  9990,2 55958  70.0021  86.7763 0002882 262.9622  97.1246 15.69936586  5451,6737.215,91.723,361.022,357.139,0.0
55958.0,STARLINK-5928,PAYLOAD,2023-04-21 06:08:09,15.69951961,0.0003503,70.0017,84.0916,278.48,81.5999,0.00010599,0.00012566,0.0,0 STARLINK-5928,1 55958U 23037AW  23111.25566667  .00012566  00000-0  10599-3 0  9995,2 55958  70.0017  84.0916 0003503 278.4800  81.5999 15.69951961  5948,6737.171,91.723,361.396,356.676,0.0
55958.0,STARLINK-5928,PAYLOAD,2023-04-21 21:25:41,15.69926045,0.0003467,70.0001,82.2994,272.8727,87.2072,1.7659e-05,1.911e-05,0.0,0 STARLINK-5928,1 55958U 23037AW  23111.89283876  .00001911  00000-0  17659-4 0  9990,2 55958  70.0001  82.2994 0003467 272.8727  87.2072 15.69926045  5706,6737.246,91.724,361.446,356.775,0.0
55958.0,STARLINK-5928,PAYLOAD,2023-04-21 22:57:26,15.69925861,0.0003591,70.0013,82.1203,274.8569,85.2217,1.2071e-05,1.239e-05,0.0,0 STARLINK-5928,1 55958U 23037AW  23111.95655325  .00001239  00000-0  12071-4 0  9995,2 55958  70.0013  82.1203 0003591 274.8569  85.2217 15.69925861  5710,6737.246,91.724,361.53,356.692,0.0
55958.0,STARLINK-5928,PAYLOAD,2023-04-22 08:07:56,15.69930231,0.000349,70.0026,81.0462,274.6523,85.4274,3.6346e-05,4.161e-05,0.0,0 STARLINK-5928,1 55958U 23037AW  23112.33885294  .00004161  00000-0  36346-4 0  9996,2 55958  70.0026  81.0462 0003490 274.6523  85.4274 15.69930231  5773,6737.234,91.724,361.45,356.747,0.0
55958.0,STARLINK-5928,PAYLOAD,2023-04-23 00:57:13,15.69929999,0.0003433,70.0025,79.0762,275.0014,85.079,-4.4811e-06,-7.52e-06,0.0,0 STARLINK-5928,1 55958U 23037AW  23113.03973716 -.00000752  00000-0 -44811-5 0  9992,2 55958  70.0025  79.0762 0003433 275.0014  85.0790 15.69929999  5889,6737.234,91.724,361.412,356.786,0.0
55958.0,STARLINK-5928,PAYLOAD,2023-04-23 20:50:00,15.69926222,0.0003222,70.0018,76.7471,264.5967,95.4861,1.5248e-05,1.621e-05,0.0,0 STARLINK-5928,1 55958U 23037AW  23113.86805595  .00001621  00000-0  15248-4 0  9997,2 55958  70.0018  76.7471 0003222 264.5967  95.4861 15.69926222  6014,6737.245,91.724,361.281,356.939,0.0
55958.0,STARLINK-5928,PAYLOAD,2023-04-23 23:53:29,15.6993739,0.0003064,70.0017,76.3879,265.9064,94.1781,2.4299e-05,2.712e-05,0.0,0 STARLINK-5928,1 55958U 23037AW  23113.99548528  .00002712  00000-0  24299-4 0  9999,2 55958  70.0017  76.3879 0003064 265.9064  94.1781 15.69937390  6035,6737.213,91.723,361.142,357.014,0.0
55958.0,STARLINK-5928,PAYLOAD,2023-04-25 14:00:01,15.69956202,0.0003391,70.002,71.9238,276.2474,55.2253,-7.7213e-05,-9.499e-05,0.0,0 STARLINK-5928,1 55958U 23037AW  23115.58335648 -.00009499  00000-0 -77213-4 0  9998,2 55958  70.0020  71.9238 0003391 276.2474  55.2253 15.69956202  1302,6737.159,91.722,361.309,356.74,0.0
55958.0,STARLINK-5928,PAYLOAD,2023-04-26 00:49:35,15.69913557,0.000248,70.0043,70.6574,283.3826,76.7093,7.0965e-06,6.41e-06,0.0,0 STARLINK-5928,1 55958U 23037AW  23116.03444055  .00000641  00000-0  70965-5 0  9998,2 55958  70.0043  70.6574 0002480 283.3826  76.7093 15.69913557  6350,6737.281,91.725,360.817,357.475,0.0
55958.0,STARLINK-5928,PAYLOAD,2023-04-26 14:35:20,15.69938782,0.0002571,70.0046,69.0459,283.5451,76.5458,8.1771e-05,9.636e-05,0.0,0 STARLINK-5928,1 55958U 23037AW  23116.60788139  .00009636  00000-0  81771-4 0  9994,2 55958  70.0046  69.0459 0002571 283.5451  76.5458 15.69938782  6444,6737.209,91.723,360.806,357.342,0.0
55958.0,STARLINK-5928,PAYLOAD,2023-04-27 02:49:22,15.69924275,0.0003683,70.0044,67.6141,275.715,84.3626,-1.3881e-06,-3.8e-06,0.0,0 STARLINK-5928,1 55958U 23037AW  23117.11761834 -.00000380  00000-0 -13881-5 0  9991,2 55958  70.0044  67.6141 0003683 275.7150  84.3626 15.69924275  6860,6737.251,91.724,361.597,356.634,0.0
55958.0,STARLINK-5928,PAYLOAD,2023-04-27 05:52:51,15.69931106,0.0003241,70.0035,67.2548,270.6676,89.4148,-1.0916e-05,-1.525e-05,0.0,0 STARLINK-5928,1 55958U 23037AW  23117.24504611 -.00001525  00000-0 -10916-4 0  9990,2 55958  70.0035  67.2548 0003241 270.6676  89.4148 15.69931106  6545,6737.231,91.724,361.28,356.913,0.0
55958.0,STARLINK-5928,PAYLOAD,2023-04-27 21:10:21,15.69973723,0.0003123,70.0053,65.463,275.0884,84.9955,-0.00016094,-0.00019558,0.0,0 STARLINK-5928,1 55958U 23037AW  23117.88219606 -.00019558  00000-0 -16094-3 0  9994,2 55958  70.0053  65.4630 0003123 275.0884  84.9955 15.69973723  6981,6737.109,91.721,361.078,356.87,0.0
55958.0,STARLINK-5928,PAYLOAD,2023-04-28 06:20:54,15.69920592,0.0002596,70.003,64.3884,274.0312,86.0587,-3.1095e-05,-3.948e-05,0.0,0 STARLINK-5928,1 55958U 23037AW  23118.26451956 -.00003948  00000-0 -31095-4 0  9998,2 55958  70.0030  64.3884 0002596 274.0312  86.0587 15.69920592  7041,6737.261,91.724,360.875,357.377,0.0
55958.0,STARLINK-5928,PAYLOAD,2023-04-28 20:06:40,15.69928248,0.0003037,70.0018,62.7747,265.3667,94.7182,2.2771e-05,2.527e-05,0.0,0 STARLINK-5928,1 55958U 23037AW  23118.83796387  .00002527  00000-0  22771-4 0  9992,2 55958  70.0018  62.7747 0003037 265.3667  94.7182 15.69928248  7137,6737.239,91.724,361.15,357.058,0.0
55958.0,STARLINK-5928,PAYLOAD,2023-04-29 06:48:55,15.69926322,0.0003377,70.0005,61.5206,263.408,96.6732,1.6572e-05,1.781e-05,0.0,0 STARLINK-5928,1 55958U 23037AW  23119.28398074  .00001781  00000-0  16572-4 0  9996,2 55958  70.0005  61.5206 0003377 263.4080  96.6732 15.69926322  6867,6737.245,91.724,361.385,356.835,0.0
55958.0,STARLINK-5928,PAYLOAD,2023-04-29 23:38:12,15.69926674,0.0003209,70.0015,59.5509,256.0379,104.046,3.2119e-05,3.651e-05,0.0,0 STARLINK-5928,1 55958U 23037AW  23119.98486388  .00003651  00000-0  32119-4 0  9992,2 55958  70.0015  59.5509 0003209 256.0379 104.0460 15.69926674  7317,6737.244,91.724,361.271,356.947,0.0
55958.0,STARLINK-5928,PAYLOAD,2023-04-30 07:16:58,15.69912655,0.0002564,70.0012,58.6546,279.8863,80.2043,-4.8713e-06,-7.97e-06,0.0,0 STARLINK-5928,1 55958U 23037AW  23120.30345878 -.00000797  00000-0 -48713-5 0  9996,2 55958  70.0012  58.6546 0002564 279.8863  80.2043 15.69912655  7360,6737.284,91.725,360.876,357.421,0.0
55958.0,STARLINK-5928,PAYLOAD,2023-05-01 04:41:30,15.69924513,0.0002759,70.0013,56.1471,274.5487,85.5394,1.4439e-05,1.524e-05,0.0,0 STARLINK-5928,1 55958U 23037AW  23121.19548803  .00001524  00000-0  14439-4 0  9991,2 55958  70.0013  56.1471 0002759 274.5487  85.5394 15.69924513  7500,6737.25,91.724,360.974,357.256,0.0
55958.0,STARLINK-5928,PAYLOAD,2023-05-01 06:13:14,15.69929014,0.0003168,70.0017,55.9679,248.0112,112.0747,2.0043e-05,2.198e-05,0.0,0 STARLINK-5928,1 55958U 23037AW  23121.25920010  .00002198  00000-0  20043-4 0  9998,2 55958  70.0017  55.9679 0003168 248.0112 112.0747 15.69929014  7179,6737.237,91.724,361.236,356.968,0.0
55958.0,STARLINK-5928,PAYLOAD,2023-05-01 21:30:45,15.69934008,0.0003108,70.0019,54.176,239.7748,120.314,2.7517e-05,3.099e-05,0.0,0 STARLINK-5928,1 55958U 23037AW  23121.89636351  .00003099  00000-0  27517-4 0  9994,2 55958  70.0019  54.1760 0003108 239.7748 120.3140 15.69934008  7278,6737.223,91.724,361.182,356.994,0.0
55958.0,STARLINK-5928,PAYLOAD,2023-05-01 23:02:30,15.69934424,0.0003148,70.002,53.9965,249.8022,110.2835,2.8699e-05,3.241e-05,0.0,0 STARLINK-5928,1 55958U 23037AW  23121.96008011  .00003241  00000-0  28699-4 0  9999,2 55958  70.0020  53.9965 0003148 249.8022 110.2835 15.69934424  7625,6737.222,91.724,361.207,356.966,0.0
